[{"OBJECT_NAME":"O3B FM17","OBJECT_ID":"2019-020C","EPOCH":"2026-04-26T08:20:35.041056","MEAN_MOTION":5.00115502,"ECCENTRICITY":0.0002611,"INCLINATION":0.0341,"RA_OF_ASC_NODE":355.141,"ARG_OF_PERICENTER":37.3518,"MEAN_ANOMALY":327.5216,"EPHEMERIS_TYPE":0,"CLASSIFICATION_TYPE":"U","NORAD_CAT_ID":44114,"ELEMENT_SET_NO":999,"REV_AT_EPOCH":12893,"BSTAR":0,"MEAN_MOTION_DOT":-2.7e-7,"MEAN_MOTION_DDOT":0},{"OBJECT_NAME":"O3B FM18","OBJECT_ID":"2019-020D","EPOCH":"2026-04-26T11:51:06.961248","MEAN_MOTION":5.00115269,"ECCENTRICITY":0.0002733,"INCLINATION":0.0536,"RA_OF_ASC_NODE":1.4893,"ARG_OF_PERICENTER":35.3839,"MEAN_ANOMALY":323.144,"EPHEMERIS_TYPE":0,"CLASSIFICATION_TYPE":"U","NORAD_CAT_ID":44115,"ELEMENT_SET_NO":999,"REV_AT_EPOCH":12906,"BSTAR":0,"MEAN_MOTION_DOT":-2.7e-7,"MEAN_MOTION_DDOT":0},{"OBJECT_NAME":"SES-17","OBJECT_ID":"2021-095A","EPOCH":"2026-04-26T20:05:34.931040","MEAN_MOTION":1.00271052,"ECCENTRICITY":9.34e-5,"INCLINATION":0.0416,"RA_OF_ASC_NODE":44.2609,"ARG_OF_PERICENTER":345.2062,"MEAN_ANOMALY":59.666,"EPHEMERIS_TYPE":0,"CLASSIFICATION_TYPE":"U","NORAD_CAT_ID":49332,"ELEMENT_SET_NO":999,"REV_AT_EPOCH":1733,"BSTAR":0,"MEAN_MOTION_DOT":-2.84e-6,"MEAN_MOTION_DDOT":0},{"OBJECT_NAME":"SES-22","OBJECT_ID":"2022-071A","EPOCH":"2026-04-26T16:38:38.601312","MEAN_MOTION":1.0027389,"ECCENTRICITY":0.0001,"INCLINATION":0.0215,"RA_OF_ASC_NODE":273.4764,"ARG_OF_PERICENTER":117.7932,"MEAN_ANOMALY":294.0767,"EPHEMERIS_TYPE":0,"CLASSIFICATION_TYPE":"U","NORAD_CAT_ID":52933,"ELEMENT_SET_NO":999,"REV_AT_EPOCH":700,"BSTAR":0,"MEAN_MOTION_DOT":9.3e-7,"MEAN_MOTION_DDOT":0},{"OBJECT_NAME":"SES-20","OBJECT_ID":"2022-123A","EPOCH":"2026-04-26T14:47:18.497184","MEAN_MOTION":1.00272753,"ECCENTRICITY":0.0002109,"INCLINATION":0.022,"RA_OF_ASC_NODE":102.5703,"ARG_OF_PERICENTER":323.1691,"MEAN_ANOMALY":267.6136,"EPHEMERIS_TYPE":0,"CLASSIFICATION_TYPE":"U","NORAD_CAT_ID":53960,"ELEMENT_SET_NO":999,"REV_AT_EPOCH":1301,"BSTAR":0,"MEAN_MOTION_DOT":0,"MEAN_MOTION_DDOT":0},{"OBJECT_NAME":"SES-21","OBJECT_ID":"2022-123B","EPOCH":"2026-04-26T15:12:38.767392","MEAN_MOTION":1.0027048,"ECCENTRICITY":9.8e-5,"INCLINATION":0.0221,"RA_OF_ASC_NODE":66.2576,"ARG_OF_PERICENTER":325.6874,"MEAN_ANOMALY":279.8726,"EPHEMERIS_TYPE":0,"CLASSIFICATION_TYPE":"U","NORAD_CAT_ID":53961,"ELEMENT_SET_NO":999,"REV_AT_EPOCH":669,"BSTAR":0,"MEAN_MOTION_DOT":5.7e-7,"MEAN_MOTION_DDOT":0},{"OBJECT_NAME":"O3B MPOWER F1","OBJECT_ID":"2022-174A","EPOCH":"2026-04-26T20:24:25.622784","MEAN_MOTION":5.00114871,"ECCENTRICITY":0.0005894,"INCLINATION":0.0597,"RA_OF_ASC_NODE":347.2861,"ARG_OF_PERICENTER":65.4202,"MEAN_ANOMALY":89.0618,"EPHEMERIS_TYPE":0,"CLASSIFICATION_TYPE":"U","NORAD_CAT_ID":54755,"ELEMENT_SET_NO":999,"REV_AT_EPOCH":6279,"BSTAR":0,"MEAN_MOTION_DOT":-2.7e-7,"MEAN_MOTION_DDOT":0},{"OBJECT_NAME":"O3B MPOWER F2","OBJECT_ID":"2022-174B","EPOCH":"2026-04-26T17:43:02.462016","MEAN_MOTION":5.00115334,"ECCENTRICITY":0.000594,"INCLINATION":0.0562,"RA_OF_ASC_NODE":344.9587,"ARG_OF_PERICENTER":48.7072,"MEAN_ANOMALY":326.3703,"EPHEMERIS_TYPE":0,"CLASSIFICATION_TYPE":"U","NORAD_CAT_ID":54756,"ELEMENT_SET_NO":999,"REV_AT_EPOCH":6286,"BSTAR":0,"MEAN_MOTION_DOT":-2.7e-7,"MEAN_MOTION_DDOT":0},{"OBJECT_NAME":"SES-18","OBJECT_ID":"2023-038A","EPOCH":"2026-04-26T14:47:18.497184","MEAN_MOTION":1.00271409,"ECCENTRICITY":0.000144,"INCLINATION":0.0206,"RA_OF_ASC_NODE":258.4896,"ARG_OF_PERICENTER":73.5505,"MEAN_ANOMALY":1.2933,"EPHEMERIS_TYPE":0,"CLASSIFICATION_TYPE":"U","NORAD_CAT_ID":55970,"ELEMENT_SET_NO":999,"REV_AT_EPOCH":1158,"BSTAR":0,"MEAN_MOTION_DOT":-1.13e-6,"MEAN_MOTION_DDOT":0},{"OBJECT_NAME":"SES-19","OBJECT_ID":"2023-038B","EPOCH":"2026-04-26T17:26:34.567008","MEAN_MOTION":1.00271054,"ECCENTRICITY":0.0001544,"INCLINATION":0.0221,"RA_OF_ASC_NODE":285.0119,"ARG_OF_PERICENTER":102.2257,"MEAN_ANOMALY":314.2285,"EPHEMERIS_TYPE":0,"CLASSIFICATION_TYPE":"U","NORAD_CAT_ID":55971,"ELEMENT_SET_NO":999,"REV_AT_EPOCH":1157,"BSTAR":0,"MEAN_MOTION_DOT":7.6e-7,"MEAN_MOTION_DDOT":0},{"OBJECT_NAME":"O3B MPOWER F4","OBJECT_ID":"2023-059A","EPOCH":"2026-04-26T14:27:48.674880","MEAN_MOTION":5.00115901,"ECCENTRICITY":0.0007262,"INCLINATION":0.0649,"RA_OF_ASC_NODE":2.5883,"ARG_OF_PERICENTER":44.9517,"MEAN_ANOMALY":312.5198,"EPHEMERIS_TYPE":0,"CLASSIFICATION_TYPE":"U","NORAD_CAT_ID":56367,"ELEMENT_SET_NO":999,"REV_AT_EPOCH":5602,"BSTAR":0,"MEAN_MOTION_DOT":-2.7e-7,"MEAN_MOTION_DDOT":0},{"OBJECT_NAME":"O3B MPOWER F3","OBJECT_ID":"2023-059B","EPOCH":"2026-04-26T15:15:43.214976","MEAN_MOTION":5.00116609,"ECCENTRICITY":0.0006658,"INCLINATION":0.066,"RA_OF_ASC_NODE":2.2925,"ARG_OF_PERICENTER":35.594,"MEAN_ANOMALY":322.1589,"EPHEMERIS_TYPE":0,"CLASSIFICATION_TYPE":"U","NORAD_CAT_ID":56368,"ELEMENT_SET_NO":999,"REV_AT_EPOCH":5215,"BSTAR":0,"MEAN_MOTION_DOT":-2.7e-7,"MEAN_MOTION_DDOT":0},{"OBJECT_NAME":"O3B MPOWER F5","OBJECT_ID":"2023-175A","EPOCH":"2026-04-26T17:40:45.701184","MEAN_MOTION":5.00115556,"ECCENTRICITY":0.0004477,"INCLINATION":0.0448,"RA_OF_ASC_NODE":11.8202,"ARG_OF_PERICENTER":36.032,"MEAN_ANOMALY":312.1844,"EPHEMERIS_TYPE":0,"CLASSIFICATION_TYPE":"U","NORAD_CAT_ID":58346,"ELEMENT_SET_NO":999,"REV_AT_EPOCH":4685,"BSTAR":0,"MEAN_MOTION_DOT":-2.7e-7,"MEAN_MOTION_DDOT":0},{"OBJECT_NAME":"O3B MPOWER F6","OBJECT_ID":"2023-175B","EPOCH":"2026-04-26T15:17:52.794240","MEAN_MOTION":5.00116209,"ECCENTRICITY":0.0004705,"INCLINATION":0.0514,"RA_OF_ASC_NODE":6.1782,"ARG_OF_PERICENTER":20.1726,"MEAN_ANOMALY":333.6715,"EPHEMERIS_TYPE":0,"CLASSIFICATION_TYPE":"U","NORAD_CAT_ID":58347,"ELEMENT_SET_NO":999,"REV_AT_EPOCH":4577,"BSTAR":0,"MEAN_MOTION_DOT":-2.7e-7,"MEAN_MOTION_DDOT":0},{"OBJECT_NAME":"ASTRA 1P (SES-24)","OBJECT_ID":"2024-115A","EPOCH":"2026-04-26T19:20:38.596128","MEAN_MOTION":1.00272353,"ECCENTRICITY":0.0002806,"INCLINATION":0.0817,"RA_OF_ASC_NODE":41.599,"ARG_OF_PERICENTER":275.5207,"MEAN_ANOMALY":207.0425,"EPHEMERIS_TYPE":0,"CLASSIFICATION_TYPE":"U","NORAD_CAT_ID":60086,"ELEMENT_SET_NO":999,"REV_AT_EPOCH":668,"BSTAR":0,"MEAN_MOTION_DOT":1.08e-6,"MEAN_MOTION_DDOT":0},{"OBJECT_NAME":"O3B MPOWER F7","OBJECT_ID":"2024-244A","EPOCH":"2026-04-26T16:53:19.280832","MEAN_MOTION":5.00115126,"ECCENTRICITY":0.0006077,"INCLINATION":0.0717,"RA_OF_ASC_NODE":358.0196,"ARG_OF_PERICENTER":35.3481,"MEAN_ANOMALY":326.6691,"EPHEMERIS_TYPE":0,"CLASSIFICATION_TYPE":"U","NORAD_CAT_ID":62362,"ELEMENT_SET_NO":999,"REV_AT_EPOCH":2395,"BSTAR":0,"MEAN_MOTION_DOT":-2.7e-7,"MEAN_MOTION_DDOT":0},{"OBJECT_NAME":"O3B MPOWER F8","OBJECT_ID":"2024-244B","EPOCH":"2026-04-26T11:17:52.499328","MEAN_MOTION":5.00115433,"ECCENTRICITY":0.00062942,"INCLINATION":0.0328,"RA_OF_ASC_NODE":314.8174,"ARG_OF_PERICENTER":71.461,"MEAN_ANOMALY":333.7519,"EPHEMERIS_TYPE":0,"CLASSIFICATION_TYPE":"U","NORAD_CAT_ID":62363,"ELEMENT_SET_NO":999,"REV_AT_EPOCH":1827,"BSTAR":0,"MEAN_MOTION_DOT":-2.7e-7,"MEAN_MOTION_DDOT":0}]
