O3B FM17                
1 44114U 19020C   26116.34762779 -.00000027  00000+0  00000+0 0  9995
2 44114   0.0341 355.1410 0002611  37.3518 327.5216  5.00115502128938
O3B FM18                
1 44115U 19020D   26116.49383057 -.00000027  00000+0  00000+0 0  9990
2 44115   0.0536   1.4893 0002733  35.3839 323.1440  5.00115269129066
SES-17                  
1 49332U 21095A   26116.83720985 -.00000284  00000+0  00000+0 0  9999
2 49332   0.0416  44.2609 0000934 345.2062  59.6660  1.00271052 17331
SES-22                  
1 52933U 22071A   26116.69350233  .00000093  00000+0  00000+0 0  9991
2 52933   0.0215 273.4764 0001000 117.7932 294.0767  1.00273890  7008
SES-20                  
1 53960U 22123A   26116.61618631  .00000000  00000+0  00000+0 0  9999
2 53960   0.0220 102.5703 0002109 323.1691 267.6136  1.00272753 13017
SES-21                  
1 53961U 22123B   26116.63378203  .00000057  00000+0  00000+0 0  9992
2 53961   0.0221  66.2576 0000980 325.6874 279.8726  1.00270480  6699
O3B MPOWER F1           
1 54755U 22174A   26116.85029656 -.00000027  00000+0  00000+0 0  9997
2 54755   0.0597 347.2861 0005894  65.4202  89.0618  5.00114871 62798
O3B MPOWER F2           
1 54756U 22174B   26116.73822294 -.00000027  00000+0  00000+0 0  9994
2 54756   0.0562 344.9587 0005940  48.7072 326.3703  5.00115334 62866
SES-18                  
1 55970U 23038A   26116.61618631 -.00000113  00000+0  00000+0 0  9994
2 55970   0.0206 258.4896 0001440  73.5505   1.2933  1.00271409 11589
SES-19                  
1 55971U 23038B   26116.72678897  .00000076  00000+0  00000+0 0  9994
2 55971   0.0221 285.0119 0001544 102.2257 314.2285  1.00271054 11572
O3B MPOWER F4           
1 56367U 23059A   26116.60264670 -.00000027  00000+0  00000+0 0  9991
2 56367   0.0649   2.5883 0007262  44.9517 312.5198  5.00115901 56025
O3B MPOWER F3           
1 56368U 23059B   26116.63591684 -.00000027  00000+0  00000+0 0  9993
2 56368   0.0660   2.2925 0006658  35.5940 322.1589  5.00116609 52154
O3B MPOWER F5           
1 58346U 23175A   26116.73664006 -.00000027  00000+0  00000+0 0  9990
2 58346   0.0448  11.8202 0004477  36.0320 312.1844  5.00115556 46858
O3B MPOWER F6           
1 58347U 23175B   26116.63741660 -.00000027  00000+0  00000+0 0  9992
2 58347   0.0514   6.1782 0004705  20.1726 333.6715  5.00116209 45772
ASTRA 1P (SES-24)       
1 60086U 24115A   26116.80600227  .00000108  00000+0  00000+0 0  9991
2 60086   0.0817  41.5990 0002806 275.5207 207.0425  1.00272353  6683
O3B MPOWER F7           
1 62362U 24244A   26116.70369538 -.00000027  00000+0  00000+0 0  9990
2 62362   0.0717 358.0196 0006077  35.3481 326.6691  5.00115126 23955
O3B MPOWER F8           
1 62363U 24244B   26116.47074652 -.00000027  00000+0  00000+0 0  9995
2 62363   0.0328 314.8174 0006294  71.4610 333.7519  5.00115433 18274
